satname,norad_id,inclination_deg,eccentricity,mean_motion_rev_per_day,perigee_km,apogee_km,l1,l2
STARLINK-1417,45693,53.0503,0.0006301,15.15783876,514.254171339745,522.9454390616584,1 45693U 20035AN  26139.28526314  .00021781  00000+0  11396-2 0  9999,2 45693  53.0503  93.4861 0006301  73.5787 286.5899 15.15783876329599
STARLINK-1420,45695,53.0467,0.0006431,15.65992334,366.04635313866584,374.72630384377135,1 45695U 20035AQ  26139.95284350  .00041538  00000+0  40201-3 0  9996,2 45695  53.0467  34.9426 0006431  78.2056 281.9680 15.65992334330485
STARLINK-1422,45696,53.1569,0.0003739,15.33293448,463.4351031170927,468.55314437142897,1 45696U 20035AR  26139.79149233  .00025946  00000+0  80383-3 0  9999,2 45696  53.1569  78.8137 0003739  81.4241 278.7185 15.33293448329865
STARLINK-1351,45697,53.0445,0.0005576,15.64558499,370.7435331467859,378.2740837523688,1 45697U 20035AS  26139.95477907  .00064360  00000+0  65467-3 0  9999,2 45697  53.0445  35.1461 0005576  87.5876 272.5777 15.64558499330489
STARLINK-1400,45700,53.0437,0.000459,15.62036399,378.6727057763028,384.8783054564583,1 45700U 20035AV  26139.94853259  .00074590  00000+0  83564-3 0  9995,2 45700  53.0437  37.5077 0004590  48.6838 311.4569 15.62036399330441
STARLINK-1403,45701,53.1564,0.0002798,15.32266682,467.1354230320003,470.9671095858266,1 45701U 20035AW  26139.53048722  .00031329  00000+0  99923-3 0  9991,2 45701  53.1564  67.4364 0002798  94.8451 265.2870 15.32266682329993
STARLINK-1407,45703,53.0293,0.0003291,15.70927974,354.0273424820534,358.45991181084173,1 45703U 20035AY  26139.85147770  .00168578  00000+0  13003-2 0  9992,2 45703  53.0293 325.7909 0003291 349.0774  11.0171 15.70927974331444
STARLINK-1411,45706,53.0337,0.0001863,15.8134244,325.3942808299116,327.89248200002567,1 45706U 20035BB  26140.00002315  .00206018  00000+0  10006-2 0  9991,2 45706  53.0337 348.2951 0001863 224.0466  72.0677 15.81342440  5892
STARLINK-1423,45710,53.0446,0.0007441,15.66915259,362.71650973446776,372.75571810260135,1 45710U 20035BF  26139.99487969  .00045669  00000+0  42503-3 0  9995,2 45710  53.0446  34.3098 0007441  50.7661 309.4014 15.66915259330487
STARLINK-1433,45711,53.0448,0.0007436,15.66500403,363.90995003391527,373.94418371417123,1 45711U 20035BG  26139.91141790  .00041546  00000+0  39385-3 0  9991,2 45711  53.0448  33.2622 0007436  55.2715 304.9000 15.66500403330492
STARLINK-1434,45712,53.0503,0.0003556,15.32719058,465.26953854257226,470.1383006045726,1 45712U 20035BH  26139.90285638  .00027707  00000+0  87296-3 0  9998,2 45712  53.0503  48.5477 0003556  56.2150 303.9189 15.32719058330291
STARLINK-1465,45731,53.0454,0.0001967,15.60922497,383.6608116390089,386.32142624100015,1 45731U 20038B   26139.63488277  .00080361  00000+0  93898-3 0  9996,2 45731  53.0454 239.8130 0001967 297.4004  62.6809 15.60922497327422
STARLINK-1471,45735,53.0436,0.0003028,15.52463653,407.48020587463907,411.59082034857965,1 45735U 20038F   26139.34270835  .00015336  00000+0  25341-3 0  9995,2 45735  53.0436 162.5458 0003028  64.9864 295.1459 15.52463653328499
STARLINK-1480,45741,53.048,0.0005616,15.62545608,376.5112511354837,384.10233520397196,1 45741U 20038M   26139.54782783  .00083689  00000+0  91729-3 0  9993,2 45741  53.0480 233.8457 0005616 328.8722  31.1958 15.62545608327512
STARLINK-1500,45744,53.0344,0.0002207,15.38251445,449.77257299347,452.7870775801521,1 45744U 20038Q   26139.63526975  .00016674  00000+0  44522-3 0  9994,2 45744  53.0344 219.0031 0002207  97.3126 262.8127 15.38251445327727
STARLINK-1504,45746,53.0187,0.0003579,15.57667405,391.9859847437674,396.83377379995,1 45746U 20038S   26139.42367460  .00019761  00000+0  26815-3 0  9990,2 45746  53.0187 159.6940 0003579  43.6064 316.5229 15.57667405328527
STARLINK-1506,45747,53.0761,0.0003488,15.27955982,479.53071243477916,484.3162906406533,1 45747U 20038T   26139.66694893  .00005507  00000+0  21174-3 0  9996,2 45747  53.0761 233.5627 0003488 114.2921 245.8443 15.27955982327535
STARLINK-1464,45751,53.0452,0.0003149,15.52823556,406.34956407696154,410.62377966550594,1 45751U 20038X   26139.95610964  .00043970  00000+0  70083-3 0  9999,2 45751  53.0452 223.4783 0003149 342.7911  17.2991 15.52823556327694
STARLINK-1477,45754,53.0474,8.66e-05,15.17951937,511.4345697183162,512.6279468606517,1 45754U 20038AA  26139.29650896  .00017535  00000+0  86637-3 0  9997,2 45754  53.0474 251.1297 0000866 191.9749 168.1225 15.17951937327248
STARLINK-1478,45755,53.0447,0.0003459,15.6603273,367.9360012759871,372.60454942907563,1 45755U 20038AB  26139.43756040  .00032058  00000+0  31155-3 0  9994,2 45755  53.0447 212.6674 0003459   3.6863 356.4176 15.66032730327788
STARLINK-1493,45759,53.0464,0.0006191,15.61954253,377.827305660353,386.1977227888665,1 45759U 20038AF  26139.79838586  .00075294  00000+0  84577-3 0  9998,2 45759  53.0464 220.0632 0006191 321.9274  38.1301 15.61954253327711
STARLINK-1494,45760,53.0398,0.0006647,15.94994838,283.89756895752544,292.7599685505065,1 45760U 20038AG  26140.00002315  .00291287  44336-4  73828-3 0  9993,2 45760  53.0398 152.0966 0006647  19.0755 207.4857 15.94994838  6033
STARLINK-1502,45764,53.0452,0.0006702,15.58245033,388.19825354372824,397.2739318371705,1 45764U 20038AL  26139.61381328  .00046295  00000+0  60367-3 0  9992,2 45764  53.0452 224.2655 0006702 286.2558  73.7716 15.58245033327654
STARLINK-1470,45772,53.0426,0.0003428,15.33769897,462.23099798479416,466.9223624839633,1 45772U 20038AU  26139.89167163  .00027616  00000+0  84190-3 0  9996,2 45772  53.0426 202.2749 0003428 335.3575  24.7261 15.33769897327980
STARLINK-1482,45773,53.158,0.0003534,15.36174239,455.019213074248,459.8505952961259,1 45773U 20038AV  26139.93218562  .00044138  00000+0  12377-2 0  9997,2 45773  53.1580 218.6064 0003534 330.2296  29.8506 15.36174239327774
STARLINK-1496,45780,53.0438,0.0007558,15.59667519,383.5042615934881,393.73288932134983,1 45780U 20038BC  26139.43871378  .00057680  00000+0  71005-3 0  9990,2 45780  53.0438 196.1405 0007558  11.4703 348.6480 15.59667519328017
STARLINK-1513,45786,53.1587,9.98e-05,15.31713328,470.01675148017875,471.3837793983603,1 45786U 20038BJ  26139.91466126  .00001789  00000+0  69379-4 0  9991,2 45786  53.1587 219.9460 0000998  78.4432 281.6682 15.31713328327757
STARLINK-1522,46027,53.0605,0.0002776,15.12236654,527.4630875183411,531.2981412978606,1 46027U 20055A   26139.79883551  .00017850  00000+0  10355-2 0  9994,2 46027  53.0605 165.1732 0002776 357.9368   2.1612 15.12236654319637
STARLINK-1523,46028,53.1616,0.0001197,15.30230953,474.3023157182988,475.94298607872315,1 46028U 20055B   26139.78064508  .00005065  00000+0  18286-3 0  9994,2 46028  53.1616 156.4937 0001197  92.7931 267.3207 15.30230953319784
STARLINK-1526,46029,53.1608,0.0001264,15.30192955,474.36983823973696,476.1023709605797,1 46029U 20055C   26139.77435572  .00000586  00000+0  31914-4 0  9994,2 46029  53.1608 156.5322 0001264  85.1382 274.9763 15.30192955319775
STARLINK-1555,46032,53.1593,0.0001315,15.30199177,474.3163106298116,476.11874287034607,1 46032U 20055F   26139.75857175  .00005380  00000+0  19364-3 0  9994,2 46032  53.1593 156.5884 0001315  89.8639 270.2513 15.30199177319773
STARLINK-1556,46033,53.1582,0.0001358,15.30202783,474.2760758129634,476.13744397815117,1 46033U 20055G   26139.74169338  .00000959  00000+0  44485-4 0  9991,2 46033  53.1582 156.6839 0001358  81.0849 279.0305 15.30202783319748
STARLINK-1557,46034,53.16,0.0001049,15.30192838,474.517535068454,475.95537281909037,1 46034U 20055H   26139.48360068  .00000675  00000+0  34928-4 0  9992,2 46034  53.1600 157.8784 0001049  81.5588 278.5532 15.30192838319705
STARLINK-1558,46035,53.1598,0.0001224,15.30192319,474.3991504963078,476.0768566971883,1 46035U 20055J   26139.75223379  .00001188  00000+0  52228-4 0  9999,2 46035  53.1598 156.6302 0001224  82.8752 277.2388 15.30192319319773
STARLINK-1560,46036,53.1614,0.0001129,15.30199666,474.4423231220726,475.9898102445286,1 46036U 20055K   26139.73853619  .00000480  00000+0  28326-4 0  9990,2 46036  53.1614 156.7039 0001129  93.4215 266.6915 15.30199666319777
STARLINK-1569,46039,53.1605,0.0001312,15.30192494,474.33831834205375,476.1366438058867,1 46039U 20055N   26139.75539525  .00000255  00000+0  20757-4 0  9992,2 46039  53.1605 156.6075 0001312  88.1074 272.0077 15.30192494319768
STARLINK-1582,46043,53.1592,0.0001149,15.31703777,469.9418015352312,471.515670881412,1 46043U 20055S   26139.33468380  .00001225  00000+0  51211-4 0  9998,2 46043  53.1592 158.1769 0001149  86.2847 273.8286 15.31703777319708
STARLINK-1591,46045,53.1604,0.0001284,15.30193639,474.35408944014307,476.11403512893685,1 46045U 20055U   26139.33084978  .00001149  00000+0  50907-4 0  9993,2 46045  53.1604 158.5841 0001284  83.8775 276.2372 15.30193639319681
STARLINK-1524,46047,53.1602,0.0001143,15.31705616,469.94042954596716,471.50607900009345,1 46047U 20055W   26139.43451569  .00000378  00000+0  23929-4 0  9997,2 46047  53.1602 145.0091 0001143  85.1001 275.0131 15.31705616319900
STARLINK-1527,46048,53.1603,0.0001174,15.31703808,469.9245869727347,471.53270062589854,1 46048U 20055X   26139.42984810  .00000362  00000+0  23428-4 0  9994,2 46048  53.1603 145.0108 0001174  79.1914 280.9220 15.31703808319872
STARLINK-1540,46051,53.1616,0.0001318,15.31705271,469.82160277692765,471.6269626110452,1 46051U 20055AA  26139.74214350  .00001371  00000+0  55924-4 0  9995,2 46051  53.1616 143.7672 0001318  76.3101 283.8047 15.31705271319963
STARLINK-1541,46052,53.1594,0.0002114,15.77870371,335.05612296195795,337.895061165882,1 46052U 20055AB  26139.97655083  .00113924  00000+0  65660-3 0  9998,2 46052  53.1594 133.2027 0002114  82.5186 277.6076 15.77870371320097
STARLINK-1543,46053,53.159,0.0001433,15.31700468,469.7571562688554,471.7200440158558,1 46053U 20055AC  26139.71415635  .00000470  00000+0  26929-4 0  9995,2 46053  53.1590 143.7040 0001433  79.6884 280.4279 15.31700468319959
